{
  "norad_id": 59445,
  "name": "HAWK-8B",
  "history": [
    {
      "epoch": "2026-03-28T22:29:31.427520",
      "apogee_km": 572.8057370625429,
      "perigee_km": 568.078757572177,
      "latitude_deg": 15.971150285369662,
      "longitude_deg": -145.53174720006064,
      "semi_major_axis_km": 6948.57924731736,
      "eccentricity": 0.00034014,
      "inclination_deg": 45.6209,
      "raan_deg": 333.1748,
      "arg_perigee_deg": 338.1687,
      "mean_anomaly_deg": 21.9049,
      "mean_motion_rev_day": 14.98851958
    },
    {
      "epoch": "2026-03-29T01:41:28.870656",
      "apogee_km": 572.7971679874581,
      "perigee_km": 568.0832532077884,
      "latitude_deg": 27.647943050956286,
      "longitude_deg": -132.73458815994672,
      "semi_major_axis_km": 6948.577210597623,
      "eccentricity": 0.0003392,
      "inclination_deg": 45.6207,
      "raan_deg": 332.4863,
      "arg_perigee_deg": 339.0335,
      "mean_anomaly_deg": 21.0407,
      "mean_motion_rev_day": 14.98852617
    }
  ]
}